LOCATION_ID,STREET_ADDRESS,POSTAL_CODE,CITY,STATE_PROVINCE,COUNTRY_CODE,COUNTRY_NAME
716,50 Eagan Point,,Quchanghī,,AF,Afghanistan
288,56 Warrior Way,,Muli,,MV,Maldives
462,2723 Badeau Avenue,412285,Aromashevo,,RU,Russia
182,69899 High Crossing Center,,Pampachiri,,PE,Peru
311,230 Onsgard Pass,,Brčko,,BA,Bosnia and Herzegovina
308,57562 Boyd Place,2804,Saraza,,PH,Philippines
944,80 Hagan Trail,,Siqu,,CN,China
516,064 Kedzie Crossing,,Banqiao,,CN,China
319,5034 Walton Court,,Samburat,,ID,Indonesia
716,3 Vahlen Parkway,,Pamedaran,,ID,Indonesia
446,91974 Macpherson Lane,,Protección,,HN,Honduras
534,31 Shoshone Junction,2729,Blagoevgrad,,BG,Bulgaria
695,94948 Brickson Park Alley,4575-393,Aveleda,Porto,PT,Portugal
257,11260 Holy Cross Lane,,Yuxi,,CN,China
421,03426 Myrtle Road,4635-115,Cortinhas,Porto,PT,Portugal
444,5325 2nd Circle,,Végueta,,PE,Peru
440,8261 Algoma Junction,N3E,Minnedosa,Manitoba,CA,Canada
887,9 Mayer Junction,,Zhouxi,,CN,China
877,57570 Debs Way,10505,Partido,,DO,Dominican Republic
637,11414 Jay Lane,,Jishan,,CN,China
22,3619 Warrior Crossing,,Chinchaypujio,,PE,Peru
629,91143 Homewood Crossing,7039,La Dicha,,PH,Philippines
822,8 Sutteridge Circle,2436,Baon,,PH,Philippines
876,25 Red Cloud Trail,75287,Dallas,Texas,US,United States
364,1431 Kennedy Crossing,,Arroyo Naranjo,,CU,Cuba
303,871 Summerview Terrace,,Shīnḏanḏ,,AF,Afghanistan
894,8 Bowman Avenue,,Tsagaan-Olom,,MN,Mongolia
841,8 Rusk Alley,,Lixu,,CN,China
183,12650 Kennedy Lane,,Tyvriv,,UA,Ukraine
367,65168 Clemons Circle,46-081,Dobrzeń Wielki,,PL,Poland
784,1512 Texas Circle,72124,Guadalupe,Puebla,MX,Mexico
195,6352 Ridgeview Circle,7035,New Cebu,,PH,Philippines
501,574 Harbort Point,54130,Phrae,,TH,Thailand
885,52731 Express Parkway,,Arkalyk,,KZ,Kazakhstan
415,64456 Sloan Drive,5281,Junín,,AR,Argentina
748,61 Jenna Avenue,59309 CEDEX,Valenciennes,Nord-Pas-de-Calais,FR,France
127,6942 Golden Leaf Way,,Hetang,,CN,China
53,59453 Anzinger Trail,,Xietang,,CN,China
664,7647 Nova Avenue,1028,Sydney,New South Wales,AU,Australia
633,14644 Thackeray Trail,,Ligang,,CN,China
606,7 Clyde Gallagher Park,9100-153,Santa Cruz,Ilha da Madeira,PT,Portugal
54,18776 Sage Court,,Idi Iroko,,NG,Nigeria
354,3 Calypso Junction,,Kvasy,,UA,Ukraine
492,33 Vahlen Junction,,Heshan,,CN,China
279,0182 Schiller Lane,,Jiangzhou,,CN,China
928,6350 Gerald Place,37072 CEDEX 2,Tours,Centre,FR,France
46,61 Melby Parkway,92924 CEDEX,Paris La Défense,Île-de-France,FR,France
324,6148 Grim Junction,2307,Camias,,PH,Philippines
581,50 Mariners Cove Junction,969-7208,Fuji,,JP,Japan
370,88847 Elka Place,2624,Magsalangi,,PH,Philippines
595,56 Menomonie Lane,865-0122,Bihoro,,JP,Japan
279,8 3rd Street,553 33,Jönköping,Jönköping,SE,Sweden
311,468 Basil Lane,,Piribebuy,,PY,Paraguay
590,18 Ridgeview Crossing,66-350,Bledzew,,PL,Poland
359,0950 Blackbird Crossing,,Chornukhy,,UA,Ukraine
468,68 Laurel Crossing,301536,Gorelki,,RU,Russia
241,0737 Barnett Way,,Shuyuan,,CN,China
291,922 Crowley Point,,Katakwi,,UG,Uganda
503,6 Fisk Terrace,21900 CEDEX 9,Dijon,Bourgogne,FR,France
138,9 Farmco Junction,141160,Grebnevo,,RU,Russia
413,75875 Twin Pines Center,671836,Kudara-Somon,,RU,Russia
866,3843 Elgar Park,,Thị Trấn Phú Mỹ,,VN,Vietnam
309,2 Northridge Avenue,,Buyunshan,,CN,China
750,5 Mariners Cove Way,07023,Concepción,,GT,Guatemala
649,56446 Killdeer Trail,,Fayzabad,,AF,Afghanistan
364,47243 Stuart Point,856019,Aguazul,,CO,Colombia
813,9013 Pankratz Court,8421,San Isidro,,PH,Philippines
791,584 Pearson Place,,Longtian,,CN,China
535,21080 Montana Avenue,141340,Konstantinovo,,RU,Russia
343,3995 Farragut Lane,92671 CEDEX,Courbevoie,Île-de-France,FR,France
904,736 Hollow Ridge Lane,,Pakembangan,,ID,Indonesia
211,46561 Hooker Lane,,Isla Pucú,,PY,Paraguay
872,6945 Tony Avenue,,Gununganyartambak Tengah,,ID,Indonesia
811,193 Schlimgen Center,L3R,Martensville,Saskatchewan,CA,Canada
445,7910 Golf Trail,,Caimitillo,,PA,Panama
85,9 Fair Oaks Parkway,153457,Ramiriquí,,CO,Colombia
315,00 Eagan Junction,93393,Niños Heroes,Veracruz Llave,MX,Mexico
504,4311 Delladonna Parkway,32-020,Kokotów,,PL,Poland
885,8 Prentice Lane,,Voskehask,,AM,Armenia
716,74 Carberry Street,,Bedadung Kulon,,ID,Indonesia
177,25430 Valley Edge Way,,El Bálsamo,,HN,Honduras
697,680 Twin Pines Plaza,44356 CEDEX,Guérande,Pays de la Loire,FR,France
486,0909 Brentwood Avenue,,Rodas,,CU,Cuba
904,41 6th Parkway,93170,Pudasjärvi,,FI,Finland
532,6 Ohio Circle,,Taiping,,CN,China
536,940 Petterle Pass,733529,Espinal,,CO,Colombia
915,57 Tennessee Road,9913,Trompsburg,,ZA,South Africa
749,5202 Waubesa Trail,216790,Rudnya,,RU,Russia
792,52763 Jay Park,,Svitlovods’k,,UA,Ukraine
304,99 Glacier Hill Plaza,,Zhangfeng,,CN,China
977,31887 Hoepker Avenue,97853 CEDEX,Saint-Pierre,Réunion,RE,Reunion
260,845 Nancy Center,741 24,Knivsta,Uppsala,SE,Sweden
146,76873 Surrey Point,763049,Buga,,CO,Colombia
222,36974 Cascade Alley,,Nanhe,,CN,China
567,26 Lyons Hill,78550-000,Sinop,,BR,Brazil
60,4612 Westport Lane,6140,Vicuña Mackenna,,AR,Argentina
947,51079 Forster Avenue,21450,Tarvasjoki,,FI,Finland
176,45173 Northridge Crossing,,Anchau,,NG,Nigeria
944,8927 Vidon Pass,,Dalang,,CN,China
461,6984 Dakota Road,,Makur,,FM,Micronesia
653,812 Acker Trail,,Ash Shaykh Zuwayd,,EG,Egypt
992,3 Prairie Rose Terrace,,Avdzaga,,MN,Mongolia
686,434 4th Point,,Xiashitai,,CN,China
867,36391 Oriole Place,22184,Vienna,Virginia,US,United States
816,57584 Westend Circle,3430-505,Beijós,Viseu,PT,Portugal
542,0 Schlimgen Terrace,BD7,Bradford,England,GB,United Kingdom
203,524 Delaware Point,1147,Budapest,Budapest,HU,Hungary
460,444 Cottonwood Alley,,Dianshui,,CN,China
192,76 Lerdahl Alley,,Birao,,CF,Central African Republic
972,060 Stuart Street,,Chahe,,CN,China
280,3893 East Point,73173,Oklahoma City,Oklahoma,US,United States
761,2 5th Terrace,,Wutun,,CN,China
579,367 Anniversary Plaza,169045,Zheshart,,RU,Russia
630,173 Tony Pass,,Suren,,ID,Indonesia
571,37 Daystar Hill,6451,Pehuajó,,AR,Argentina
594,9737 Crowley Trail,86165-000,Florestópolis,,BR,Brazil
648,3 Burrows Center,25290,Las Flores,Coahuila De Zaragoza,MX,Mexico
298,8 Norway Maple Place,,Nkayi,,CG,Republic of the Congo
485,2661 Artisan Center,142817,Semënovskoye,,RU,Russia
123,918 Hudson Drive,,Plakhtiyivka,,UA,Ukraine
368,6 Bunker Hill Way,,Sedati,,ID,Indonesia
495,9 Doe Crossing Parkway,132 30,Saltsjö-Boo,Stockholm,SE,Sweden
325,5367 Holy Cross Avenue,1715,Tigbaw,,PH,Philippines
694,0 Spaight Drive,,Babagan,,ID,Indonesia
286,67 Village Green Drive,452040,Bizhbulyak,,RU,Russia
512,1799 Petterle Pass,,Shuangtang,,CN,China
928,417 Badeau Road,57509 CEDEX,Saint-Avold,Lorraine,FR,France
790,7678 Goodland Street,84-130,Mrzezino,,PL,Poland
659,2 Pine View Road,85500-000,Pato Branco,,BR,Brazil
413,51426 Charing Cross Hill,,Fangqiang,,CN,China
396,1 Raven Point,,Zhangfang,,CN,China
603,429 South Way,,Cirahab,,ID,Indonesia
856,6 Gerald Road,,Bilqās,,EG,Egypt
317,959 Bay Plaza,36955-000,Mutum,,BR,Brazil
151,86820 Prairie Rose Avenue,38035 CEDEX 2,Grenoble,Rhône-Alpes,FR,France
49,7212 Blaine Avenue,,Timba Lauk,,ID,Indonesia
988,001 Fordem Hill,,Gwandu,,NG,Nigeria
721,3 Mcbride Place,,Jishan,,CN,China
867,37 Sachs Parkway,,Bun Barat,,ID,Indonesia
966,523 Helena Plaza,,Jambuwerkrajan,,ID,Indonesia
861,36 Kingsford Drive,,Gerakaroú,,GR,Greece
430,02 Burrows Pass,289 37,Loučeň,,CZ,Czech Republic
72,1 Westridge Hill,,Los Dos Caminos,,VE,Venezuela
342,61 Elka Lane,55448,Minneapolis,Minnesota,US,United States
179,49889 Bluejay Alley,,Hedong,,CN,China
418,7170 Westerfield Drive,,Qingshan,,CN,China
869,447 Del Sol Avenue,462 22,Vänersborg,Västra Götaland,SE,Sweden
165,4 Lakewood Circle,,Usquil,,PE,Peru
804,48601 Blackbird Street,,Chocos,,PE,Peru
222,051 Meadow Valley Lane,11860 CEDEX 9,Carcassonne,Languedoc-Roussillon,FR,France
226,60002 Oxford Point,45000,Roi Et,,TH,Thailand
122,93463 Cambridge Drive,,Nis’oni,,ID,Indonesia
819,4 Meadow Vale Place,,Kendung Timur,,ID,Indonesia
546,8 Farmco Alley,416471,Starokucherganovka,,RU,Russia
23,1 Dakota Hill,151287,El Cocuy,,CO,Colombia
5,7494 Sullivan Alley,,Mazkeret Batya,,IL,Israel
528,00 Express Lane,34829,Merkezköy,İstanbul,TR,Turkey
797,035 Chive Pass,,Pumai,,ID,Indonesia
748,0821 Sunnyside Point,97453 CEDEX,Saint-Pierre,Réunion,RE,Reunion
393,80153 Mayfield Street,79404 CEDEX,Saint-Maixent-l'École,Poitou-Charentes,FR,France
977,539 Marquette Circle,16-010,Wasilków,,PL,Poland
562,41270 Northridge Way,,Xuân Trường,,VN,Vietnam
589,341 Northridge Alley,,Xiaogang,,CN,China
542,59 Hayes Avenue,,Eauripik,,FM,Micronesia
740,187 Prentice Alley,,Novyy Svit,,UA,Ukraine
416,263 Almo Drive,,Chenxikou,,CN,China
305,2 Debs Trail,31244 CEDEX,L'Union,Midi-Pyrénées,FR,France
283,732 West Road,4905-266,Moreira de Geraz do Lima,Viana do Castelo,PT,Portugal
277,03584 Red Cloud Street,3001,Paombong,,PH,Philippines
129,0825 Brentwood Avenue,185035,Petrozavodsk,,RU,Russia
183,7 Mayfield Pass,,Sinchao,,PE,Peru
776,96 David Circle,,Linshanhe,,CN,China
937,29 Algoma Place,,Duwe,,ID,Indonesia
574,08499 Heffernan Junction,,Wufeng,,CN,China
443,2 Sutherland Center,521529,La Unión,,CO,Colombia
462,85 Kim Place,L-8273,Mamer,,LU,Luxembourg
112,7 Vera Junction,2661,Kruisfontein,,ZA,South Africa
467,563 Bayside Plaza,1101,Lampari,,PH,Philippines
102,196 Cardinal Point,,Lingqiao,,CN,China
378,3892 Golden Leaf Drive,,Ngembul,,ID,Indonesia
525,278 Shoshone Circle,,Mayisad,,HT,Haiti
507,2609 Mesta Way,,Mafraq,,JO,Jordan
303,5 Westport Junction,,Yunxi,,CN,China
223,9 Kim Junction,,Sumberjo,,ID,Indonesia
532,65 Chive Parkway,88-405,Gorzyce,,PL,Poland
156,8128 Badeau Way,,Dengmingsi,,CN,China
108,13 Hallows Circle,,Beit Jann,,IL,Israel
351,02 Swallow Alley,,Putukrejo,,ID,Indonesia
335,4 Clove Hill,,Mando,,NG,Nigeria
549,0 Lien Trail,,San José de Colinas,,HN,Honduras
118,9 Lerdahl Street,8601,Buenavista,,PH,Philippines
981,213 South Trail,,Longfengba,,CN,China
386,4640 Northview Junction,,Zhongtong,,CN,China
681,2910 Glacier Hill Court,,Angol,,CL,Chile
758,90 Milwaukee Hill,,Nanchoc,,PE,Peru
893,225 Sachtjen Court,,Chenjiahe,,CN,China
121,7 Stone Corner Avenue,,Sihai,,CN,China
311,4 Brentwood Road,,Kallithéa,,GR,Greece
986,95 Express Center,1045,Кондово,,MK,Macedonia
119,7512 Dennis Park,J5V,Virden,Manitoba,CA,Canada
168,65 Eagle Crest Trail,,Ngrayun,,ID,Indonesia
521,52730 Anniversary Parkway,,Kuzhuping,,CN,China
394,88410 Oxford Plaza,,San Pedro de Atacama,,CL,Chile
906,8 Heffernan Circle,3899,Zeewolde,Provincie Flevoland,NL,Netherlands
950,618 Forster Drive,20608,Kuala Terengganu,Terengganu,MY,Malaysia
463,01489 Macpherson Terrace,,Guhuai,,CN,China
462,633 Sherman Place,,Kraton,,ID,Indonesia
495,587 Clarendon Crossing,,Sayḩūt,,YE,Yemen
5,2 Spohn Drive,,Hengdong Chengguanzhen,,CN,China
215,6604 Clemons Junction,9003,Jasaan,,PH,Philippines
212,64 Everett Terrace,,Zhengcun,,CN,China
964,8821 Warner Terrace,,Shanghuang,,CN,China
953,8778 Parkside Park,65665-000,São João dos Patos,,BR,Brazil
140,4 Basil Circle,,Tandzut,,AM,Armenia
920,590 Burning Wood Avenue,754-0897,Ogōri-shimogō,,JP,Japan
318,6096 Jenna Parkway,,Ourovéni,,KM,Comoros
910,38 Kings Street,,Burgastai,,CN,China
796,8 John Wall Point,,Ādīs Zemen,,ET,Ethiopia
681,8 International Junction,,Fatou,,CN,China
407,688 Anhalt Road,,Cihaurbeuti,,ID,Indonesia
364,91615 Hoard Road,,Tuanai,,ID,Indonesia
531,8773 Shopko Terrace,901 81,Umeå,Västerbotten,SE,Sweden
259,189 Meadow Vale Lane,,Namwala,,ZM,Zambia
305,460 Vera Park,,Heshi,,CN,China
274,70509 Bartillon Parkway,,Kedung,,ID,Indonesia
913,0 Dexter Plaza,,Fengxizhai,,CN,China
502,77 Mallard Terrace,,Buçimas,,AL,Albania
826,607 Division Drive,468 49,Kořenov,,CZ,Czech Republic
930,85 Park Meadow Road,,Lýkeio,,GR,Greece
258,5 Superior Plaza,,Angelochóri,,GR,Greece
681,0492 Bunting Junction,,Velyka Bilozerka,,UA,Ukraine
87,66 Delladonna Alley,,Wotan,,ID,Indonesia
546,58184 Waubesa Street,940028,Inírida,,CO,Colombia
344,55 Granby Circle,,Kudang,,ID,Indonesia
876,3265 Vidon Way,,Awgu,,NG,Nigeria
547,4192 Eliot Alley,,Qiaotou,,CN,China
993,783 Jay Center,,Zhonghualu,,CN,China
191,0962 Blue Bill Park Hill,,Kotaagung,,ID,Indonesia
394,9 Logan Center,,Yuanba,,CN,China
599,079 Charing Cross Way,,Quanling,,CN,China
199,5166 Judy Lane,719-1171,Sōja,,JP,Japan
11,9738 Pine View Road,,Cilaja,,ID,Indonesia
817,618 Grasskamp Drive,,Fengshou,,CN,China
799,4 Packers Lane,,Lainqu,,CN,China
827,2404 Pine View Road,4710-730,Passos,Braga,PT,Portugal
13,15553 American Drive,40510,Lexington,Kentucky,US,United States
252,7 Gina Crossing,,Datar,,ID,Indonesia
792,00 Fairview Terrace,1552,Lanas,,PH,Philippines
98,3 Bartillon Center,,Mojogajeh,,ID,Indonesia
824,6 Menomonie Crossing,173028,Manzanares,,CO,Colombia
866,6 Sage Terrace,,Setono,,ID,Indonesia
836,2051 Jackson Junction,,Kasiyan,,ID,Indonesia
993,0 Sheridan Crossing,,Mosquée,,MA,Morocco
115,27 Division Circle,96200-000,Rio Grande,,BR,Brazil
957,436 Spenser Trail,230559,Cereté,,CO,Colombia
723,059 Fairview Hill,426 57,Västra Frölunda,Västra Götaland,SE,Sweden
993,76 Lien Center,5510,Lalmanirhat,,BD,Bangladesh
863,93630 Ludington Park,,Moengo,,SR,Suriname
322,85 Lakewood Plaza,62-090,Rokietnica,,PL,Poland
719,356 Sugar Road,,Bankim,,CM,Cameroon
484,100 Longview Alley,,Áno Sýros,,GR,Greece
191,11276 Commercial Crossing,,Bašaid,,RS,Serbia
904,82 Texas Terrace,76-280,Słupsk,,PL,Poland
64,948 Prairieview Drive,863-2503,Shiki,,JP,Japan
229,11 Walton Street,,Kasui,,ID,Indonesia
446,2 Milwaukee Court,606125,Gorbatov,,RU,Russia
43,40 Kipling Terrace,,Sungai Raya,,ID,Indonesia
59,1 Twin Pines Road,,Chengnan,,CN,China
785,1974 Anthes Road,13230,Salaya,,TH,Thailand
314,19493 Dayton Place,33-320,Nowy Sącz,,PL,Poland
14,83 Maple Parkway,250047,Mosquera,,CO,Colombia
392,635 Transport Pass,78045 CEDEX,Guyancourt,Île-de-France,FR,France
611,309 Florence Terrace,28470-000,Santo Antônio de Pádua,,BR,Brazil
2,43955 Gale Pass,,Cuijiamatou,,CN,China
12,6863 Mitchell Place,,Boro,,ID,Indonesia
481,96264 Riverside Parkway,,Ouadda,,CF,Central African Republic
144,12963 Stang Street,40591,Düsseldorf,Nordrhein-Westfalen,DE,Germany
247,866 Rigney Hill,,Tianjiazhai,,CN,China
45,1327 Derek Road,,Vista Hermosa,,PA,Panama
2,692 Mosinee Lane,,Aswan,,EG,Egypt
600,4 Esker Center,,Lolak,,ID,Indonesia
90,12 Homewood Park,64150-000,Matias Olímpio,,BR,Brazil
421,52481 Pierstorff Drive,92934,Magisterial,Veracruz Llave,MX,Mexico
767,95 Surrey Terrace,59100,Roubaix,Nord-Pas-de-Calais,FR,France
868,65247 Becker Park,427997,Kama,,RU,Russia
185,6842 Bartelt Way,,Kérkyra,,GR,Greece
781,9392 Troy Avenue,,Gongrong,,CN,China
895,465 Starling Court,748 31,Österbybruk,Uppsala,SE,Sweden
210,76214 Briar Crest Circle,,Shijak,,AL,Albania
705,382 Prentice Drive,8010,Bodø,Nordland,NO,Norway
86,71881 La Follette Center,,Radashkovichy,,BY,Belarus
719,19 Eagan Alley,925-0145,Iwata,,JP,Japan
651,667 Northview Terrace,,Sabhā,,LY,Libya
339,9575 Nelson Avenue,,Kwikila,,PG,Papua New Guinea
222,86 Luster Terrace,,Paccha,,PE,Peru
106,60161 Westerfield Hill,ZTN,Vittoriosa,,MT,Malta
948,50 Westport Alley,,Tiyuguan,,CN,China
708,05 Pepper Wood Alley,,Gaojiazhuang,,CN,China
528,39 Lien Terrace,665220,Perfilovo,,RU,Russia
201,171 Tony Plaza,83540-000,Rio Branco do Sul,,BR,Brazil
530,32 Merrick Hill,R42,Birr,,IE,Ireland
468,46674 Drewry Park,,Zhongxing,,CN,China
116,70 Linden Junction,P5N,Kapuskasing,Ontario,CA,Canada
16,9 Stuart Way,,Shangpai,,CN,China
106,9478 Lillian Drive,,Pingdingshan,,CN,China
665,7 Northview Place,,Tongyu,,CN,China
83,95 Monument Circle,,Awilega,,ID,Indonesia
228,19 Waxwing Place,993-0031,Izumi,,JP,Japan
79,3241 Brown Parkway,99700-000,Erechim,,BR,Brazil
741,73034 New Castle Trail,,Kefar Tavor,,IL,Israel
909,558 Mcguire Junction,,Kedungwaru,,ID,Indonesia
786,307 Everett Point,,Subaykhān,,SY,Syria
235,7259 Crowley Street,,Sịa,,VN,Vietnam
820,44706 Warbler Point,,Raoyang,,CN,China
164,48 Sycamore Center,1040,Skopje,,MK,Macedonia
596,248 Canary Point,,Sirnasari,,ID,Indonesia
928,04734 Oak Valley Street,,Sheki,,AZ,Azerbaijan
118,2 Russell Court,,Neftçala,,AZ,Azerbaijan
925,86288 Hayes Alley,,Çalxanqala,,AZ,Azerbaijan
876,6627 Corscot Parkway,,Hŭkkyo-ri,,KP,North Korea
261,6853 Graceland Road,,Wujing,,CN,China
887,212 Sutherland Park,,Maevatanana,,MG,Madagascar
353,9776 Grayhawk Pass,,Tebanah,,ID,Indonesia
791,31 Jana Circle,,Xinfeng,,CN,China
130,37 Oak Point,,Palma Soriano,,CU,Cuba
538,0727 American Ash Hill,,Mejdan - Obilićevo,,BA,Bosnia and Herzegovina
304,5541 Center Drive,40914,La Palma,Guerrero,MX,Mexico
752,949 Dayton Junction,,Basa,,ID,Indonesia
538,33787 Corben Way,,Mstsislaw,,BY,Belarus
970,1302 Hintze Center,,Tsowkêy,,AF,Afghanistan
328,8740 Barnett Court,,Bila Krynytsya,,UA,Ukraine
712,8 Leroy Park,6052,Patao,,PH,Philippines
706,62564 Shelley Hill,,Yashao,,CN,China
188,2 Susan Terrace,74184,Tulsa,Oklahoma,US,United States
235,11 Dovetail Plaza,4775-224,Silveiros,Braga,PT,Portugal
44,016 Barnett Place,,Lingcheng,,CN,China
636,32 Pearson Road,,Tanūmah,,SA,Saudi Arabia
33,737 Victoria Street,,Pulopaya,,ID,Indonesia
80,29 Melody Crossing,MD-5519,Rîbniţa,,MD,Moldova
591,96 Annamark Drive,4510-469,Fanzeres,Porto,PT,Portugal
819,738 Huxley Alley,76310-000,Rialma,,BR,Brazil
449,1808 Burning Wood Point,,Krajan Kedungsalam,,ID,Indonesia
403,686 Melvin Parkway,,Pristina,,XK,Kosovo
611,494 Dryden Way,92176,San Diego,California,US,United States
271,44 Lindbergh Drive,,Tamansari,,ID,Indonesia
684,3414 6th Parkway,673498,Zhireken,,RU,Russia
44,8073 Rockefeller Lane,762018,Ansermanuevo,,CO,Colombia
888,1275 Mifflin Drive,340 04,Železná Ruda,,CZ,Czech Republic
898,8274 Mendota Street,42-580,Psary,,PL,Poland
748,3104 Troy Court,6491,Gŭlŭbovo,,BG,Bulgaria
969,7648 Harbort Parkway,53104 CEDEX,Mayenne,Pays de la Loire,FR,France
458,5440 Forster Crossing,671732,Novyy Uoyan,,RU,Russia
364,0930 Weeping Birch Alley,241551,Sel’tso,,RU,Russia
927,00 Del Sol Terrace,,Lodja,,CD,Democratic Republic of the Congo
393,22359 Spohn Court,503-0625,Takikawa,,JP,Japan
472,2 Kings Plaza,,Xumu,,CN,China
812,4800 1st Park,34-481,Zubrzyca Dolna,,PL,Poland
455,51825 Randy Avenue,,Zhujiang,,CN,China
127,73406 Little Fleur Point,4701,Gabao,,PH,Philippines
108,7725 Dayton Drive,,Judita,,JO,Jordan
407,8709 Upham Plaza,,Amizmiz,,MA,Morocco
826,82 Farwell Terrace,270009,Quibdó,,CO,Colombia
169,38901 Nancy Park,,Magdalena,,PE,Peru
596,22 Caliangt Way,,Santa Rosa,,PE,Peru
41,9 Marquette Lane,47970-000,Riachão das Neves,,BR,Brazil
441,174 Knutson Parkway,,Néa Flogitá,,GR,Greece
480,155 Ramsey Point,,Baohe,,CN,China
334,94 Stoughton Plaza,4620-279,Lages,Porto,PT,Portugal
650,148 Forest Run Avenue,,Hualingang,,CN,China
145,68387 Daystar Plaza,,Tangtou,,CN,China
795,9 3rd Alley,,Dowsk,,BY,Belarus
938,1 Thackeray Point,,Xinzha,,CN,China
746,2583 Bonner Park,357329,Sovetskaya,,RU,Russia
127,40228 Nevada Trail,L-9098,Ettelbruck,,LU,Luxembourg
69,73 Mcguire Road,,Xinpu,,CN,China
839,5 Bonner Trail,8504,Rosario,,PH,Philippines
427,89340 Monterey Avenue,4800-260,Santa Maria do Souto,Braga,PT,Portugal
266,2 Northfield Drive,8711,San Fernando,,PH,Philippines
903,59 Redwing Place,,Paokmotong Utara,,ID,Indonesia
934,1 Menomonie Terrace,,Xianyan,,CN,China
1000,07371 Browning Pass,38-458,Chorkówka,,PL,Poland
483,01 Westerfield Avenue,85-056,Walichnowy,,PL,Poland
401,09 Golf Avenue,3811,Santa Marcela,,PH,Philippines
468,7 Alpine Parkway,,Savyntsi,,UA,Ukraine
4,54717 Cascade Way,,Zhanbei,,CN,China
927,56 Lerdahl Alley,4600-758,Ribeiro,Porto,PT,Portugal
767,39 Shopko Court,,Liuheng,,CN,China
746,29641 Truax Center,11604,Pedro García,,DO,Dominican Republic
974,1 Maple Wood Road,,Kyankwanzi,,UG,Uganda
742,44 Dexter Plaza,5900,Middelburg,,ZA,South Africa
632,4190 Evergreen Court,,Gulrip’shi,,GE,Georgia
464,210 Laurel Pass,69519 CEDEX,Vaulx-en-Velin,Rhône-Alpes,FR,France
556,804 Blackbird Street,,Sigli,,ID,Indonesia
779,658 Mesta Junction,,Chadiza,,ZM,Zambia
966,9 Schurz Junction,,Beibei,,CN,China
37,106 Sunbrook Drive,601465,Proletarskiy,,RU,Russia
312,14 Dennis Plaza,,Picungbera,,ID,Indonesia
807,30 Hansons Terrace,,Bokat,,ID,Indonesia
361,58 Boyd Trail,,Otuke,,UG,Uganda
961,57946 Meadow Valley Circle,,Oja,,ID,Indonesia
402,3 Spohn Parkway,,Matai,,TZ,Tanzania
787,0 Sycamore Plaza,38950-000,Ibiá,,BR,Brazil
790,28771 Twin Pines Plaza,,Srpska Crnja,,RS,Serbia
782,84197 Sunnyside Lane,419-0125,Hita,,JP,Japan
885,4 Mifflin Parkway,,Bukor,,RS,Serbia
816,920 Packers Drive,679230,Amurzet,,RU,Russia
334,7 1st Plaza,690880,Akademicheskoe,,RU,Russia
866,7 Autumn Leaf Court,32-084,Morawica,,PL,Poland
463,495 Park Meadow Street,,Juyuan,,CN,China
187,8 Jenna Point,626020,Nizhnyaya Tavda,,RU,Russia
941,4 Quincy Plaza,5501,Nagiba,,PH,Philippines
566,4 Arizona Plaza,,Bajo Naranjillo,,PE,Peru
326,0 Westerfield Way,,Ampahana,,MG,Madagascar
696,4 Chinook Drive,3605,Lamut,,PH,Philippines
304,939 Bluestem Alley,85053,Phoenix,Arizona,US,United States
151,8164 Ohio Trail,,Banjing,,CN,China
865,2418 Ohio Road,9000,Comodoro Rivadavia,,AR,Argentina
217,8 Vermont Court,,Xin’an,,CN,China
843,64 Lyons Street,,Bin’an,,CN,China
801,3 Clemons Terrace,10040,Bhimbar,,PK,Pakistan
160,4 Oak Valley Lane,09-140,Raciąż,,PL,Poland
344,2775 Pepper Wood Park,36-062,Rudna Mała,,PL,Poland
718,2 Summerview Terrace,,Challhuahuacho,,PE,Peru
234,86075 Westport Drive,7027,Josefina,,PH,Philippines
501,0 Iowa Hill,10340,Vrbovec,,HR,Croatia
749,578 Lakeland Lane,,Quebo,,GW,Guinea-Bissau
182,46 Vernon Trail,999-3146,Matsuyama,,JP,Japan
500,19438 2nd Parkway,,Shklo,,UA,Ukraine
737,804 Rutledge Hill,,Xiaxindian,,CN,China
933,7 Atwood Road,,Sabana de Parra,,VE,Venezuela
636,860 Charing Cross Terrace,,Longping,,CN,China
215,121 Starling Lane,,Huyang,,CN,China
912,203 Golf Course Point,69345 CEDEX 07,Lyon,Rhône-Alpes,FR,France
122,26345 Hollow Ridge Circle,,Xunhe,,CN,China
53,25 Hoffman Pass,,Ganjur,,ID,Indonesia
956,5 Algoma Lane,,Xiaping,,CN,China
998,2069 Sachs Hill,26-070,Łopuszno,,PL,Poland
50,5183 Derek Point,T4S,Sylvan Lake,Alberta,CA,Canada
302,10 Rusk Court,51218,Podhum,,HR,Croatia
319,7636 Northfield Hill,250208,Chía,,CO,Colombia
442,3 Tony Plaza,,Mondoteko,,ID,Indonesia
479,1 Mccormick Junction,,Wagini,,NG,Nigeria
517,1 Dapin Crossing,91127,Lahad Datu,Sabah,MY,Malaysia
147,62100 Oakridge Drive,75620-000,Pontalina,,BR,Brazil
992,21595 Beilfuss Alley,449 43,Nol,Västra Götaland,SE,Sweden
69,543 Basil Lane,301070,Skuratovskiy,,RU,Russia
581,99 Johnson Hill,,Gakovo,,RS,Serbia
573,305 Bay Plaza,666217,Manzurka,,RU,Russia
748,8178 Namekagon Point,,Río,,GR,Greece
169,8530 Drewry Lane,,Thị Trấn Tủa Chùa,,VN,Vietnam
347,6239 Nancy Court,,Shalamzār,,IR,Iran
717,1862 Fremont Street,,Taraco,,PE,Peru
28,99914 Debra Road,796 91,Älvdalen,Dalarna,SE,Sweden
290,9585 Hoard Place,,Villa Nueva,,HN,Honduras
437,8 Mandrake Way,13300-000,Itu,,BR,Brazil
961,603 Pleasure Trail,230029,Montería,,CO,Colombia
63,95019 Merry Terrace,352421,Rassvet,,RU,Russia
782,6 Logan Center,,Zhangjiawo,,CN,China
506,036 Butternut Court,,Sidirókastro,,GR,Greece
28,38 Del Mar Hill,,Rukunlima Bawah,,ID,Indonesia
638,3 Killdeer Lane,,Gaspra,,UA,Ukraine
301,3 Lotheville Street,20101,Alajuela,,CR,Costa Rica
29,64 Elmside Park,,Mokil,,FM,Micronesia
540,88 Beilfuss Circle,,Shuqiao,,CN,China
25,1869 Spohn Hill,,Guarumal,,PA,Panama
907,7987 Nancy Place,,Markaz Bilād aţ Ţa‘ām,,YE,Yemen
981,88448 Acker Place,55261,Bhāi Pheru,,PK,Pakistan
929,6 Kedzie Terrace,347-0105,Kisai,,JP,Japan
60,694 Twin Pines Place,59468 CEDEX,Lomme,Nord-Pas-de-Calais,FR,France
850,52 Sheridan Hill,,Corral,,CL,Chile
434,0016 Dwight Pass,8121,Tungipāra,,BD,Bangladesh
760,93079 Novick Crossing,6227,San Juan,,PH,Philippines
580,0 1st Street,,Liuqiao,,CN,China
585,48 Muir Trail,,Novoishimskiy,,KZ,Kazakhstan
304,515 Lakewood Junction,4910-035,Coutada,Viana do Castelo,PT,Portugal
155,1 Sachs Park,,Guhuai,,CN,China
533,2625 Loomis Trail,,Shishan,,CN,China
492,32163 Green Avenue,34000,Si Narong,,TH,Thailand
242,5632 Ronald Regan Trail,4890-561,Além do Rio,Braga,PT,Portugal
509,16 Manley Alley,,Aş Şafaqayn,,YE,Yemen
619,2 Washington Road,,Qionghai,,CN,China
309,2031 Tennessee Avenue,,Belang,,ID,Indonesia
636,31 Corben Avenue,,Liangshan,,CN,China
477,9923 Sommers Hill,30140,Amphoe Sikhiu,,TH,Thailand
105,2 Rockefeller Center,,Xiage,,CN,China
491,05864 Mockingbird Junction,8400-661,Aldeia da Bela Vista,Faro,PT,Portugal
869,66996 Comanche Way,,Voi,,KE,Kenya
802,1 Prairieview Avenue,,Cikarang,,ID,Indonesia
303,34 Carpenter Park,,Baran,,ID,Indonesia
852,98 Manufacturers Court,,Thuận Nam,,VN,Vietnam
959,653 Porter Plaza,,Lieyu,,CN,China
937,871 Delladonna Hill,,Shuiji,,CN,China
161,2537 Magdeline Plaza,,Chunghwa,,KP,North Korea
883,8 Swallow Junction,,Kafr Mandā,,IL,Israel
749,407 Messerschmidt Road,,Simpanganduwet,,ID,Indonesia
116,2 John Wall Plaza,,Qiligang,,CN,China
571,925 North Center,89-320,Wysoka,,PL,Poland
438,526 Schlimgen Way,,Thị Trấn Quế,,VN,Vietnam
868,2 Farwell Plaza,,San Felipe,,PE,Peru
975,7 Meadow Valley Avenue,,Beiwucha,,CN,China
94,56939 Valley Edge Terrace,R2J,Kamsack,Saskatchewan,CA,Canada
371,66 Eggendart Junction,,Weiyang,,CN,China
203,5 Del Sol Way,,Padangguci,,ID,Indonesia
368,49857 Manufacturers Park,,Sebeta,,ET,Ethiopia
251,72273 Anhalt Terrace,2437,Nama,,PH,Philippines
995,76725 Petterle Road,43-523,Zabłocie,,PL,Poland
263,9990 Blackbird Road,,Zhuanqiang,,CN,China
913,3000 Knutson Street,,Lefkoniko,,CY,Cyprus
929,09 Quincy Terrace,,Khorixas,,NA,Namibia
614,4004 Merrick Parkway,10004,San Bernardino,,GT,Guatemala
825,26 Transport Pass,425 65,Hisings Kärra,Västra Götaland,SE,Sweden
19,7158 Browning Drive,,Yuhuazhai,,CN,China
498,25 Mosinee Pass,,Olo,,ID,Indonesia
632,89046 Eagan Point,,Semboropasar,,ID,Indonesia
304,92 Comanche Plaza,,Hebu,,CN,China
49,9614 Raven Pass,,Wiyayu Barat,,ID,Indonesia
856,9548 Westridge Parkway,67144 CEDEX,Barr,Alsace,FR,France
891,3223 Almo Crossing,,Shixiang,,CN,China
207,73254 Anniversary Crossing,65500-000,Chapadinha,,BR,Brazil
645,3841 Mifflin Way,,Jingzhou,,CN,China
237,86524 Waubesa Lane,7104,Rizal,,PH,Philippines
117,8 Sommers Junction,,Khorugh,,TJ,Tajikistan
17,43255 Golf Course Trail,,Tlogotunggal,,ID,Indonesia
536,1 Hazelcrest Center,34-625,Skrzydlna,,PL,Poland
134,5 Clemons Pass,MD-5233,Drochia,,MD,Moldova
436,1 Montana Junction,,Paseh,,ID,Indonesia
735,65633 Anhalt Center,6100,Rājshāhi,,BD,Bangladesh
423,2215 Northview Court,919-0222,Hino,,JP,Japan
397,0 Farwell Parkway,,Cisarap,,ID,Indonesia
784,6 Blackbird Drive,,Tarakaniv,,UA,Ukraine
818,731 Fairfield Circle,,Grande Rivière Noire,,MU,Mauritius
878,1988 Arizona Place,,Henggouqiao,,CN,China
16,7925 Walton Pass,,Wādī as Salqā,,PS,Palestinian Territory
924,6 Sherman Pass,,Kerasochóri,,GR,Greece
692,7 Jay Way,,Kosava,,BY,Belarus
469,253 Cambridge Terrace,154617,Saboyá,,CO,Colombia
233,775 Lillian Street,,Lingshan,,CN,China
423,92210 Stone Corner Lane,456306,Miass,,RU,Russia
226,9 Hovde Junction,27260,Khlong Hat,,TH,Thailand
964,934 Springview Plaza,,Al ‘Awjah,,IQ,Iraq
865,5808 Union Hill,2718,Cervantes,,PH,Philippines
884,759 Johnson Drive,,Divichibazar,,AZ,Azerbaijan
209,3 Stephen Avenue,391 84,Kalmar,Kalmar,SE,Sweden
443,5 Vera Junction,70201,Guápiles,,CR,Costa Rica
500,0 Melby Place,,Tadmur,,SY,Syria
281,87838 Golden Leaf Street,,Cigemlong,,ID,Indonesia
598,06 Grasskamp Place,90040,Los Angeles,California,US,United States
445,53 Cottonwood Court,,Anau,,PF,French Polynesia
102,1681 Talisman Drive,10105,New York City,New York,US,United States
948,030 Clarendon Road,90140,Ranot,,TH,Thailand
794,45811 New Castle Trail,,Sebewe,,ID,Indonesia
935,40 Holmberg Avenue,40000,Jaffna,,LK,Sri Lanka
197,22658 Fairview Way,22-610,Krynice,,PL,Poland
853,9 Luster Hill,2765-343,São Pedro do Estoril,Lisboa,PT,Portugal
294,59 Maple Wood Circle,241551,Sel’tso,,RU,Russia
720,8 Fairview Crossing,,Cabanaconde,,PE,Peru
103,14126 Charing Cross Trail,,Svrljig,,RS,Serbia
997,2410 Donald Point,671410,Khorinsk,,RU,Russia
947,428 Kennedy Lane,301382,Novogurovskiy,,RU,Russia
386,46580 Algoma Drive,08006,Santa María Chiquimula,,GT,Guatemala
465,2383 Bluejay Plaza,35403,Rešetari,,HR,Croatia
424,5393 Fairview Plaza,,Yola,,NG,Nigeria
299,4 Coolidge Court,59500-000,Macau,,BR,Brazil
214,26 Evergreen Lane,54784,Santiago,Mexico,MX,Mexico
690,895 Hallows Street,4755-318,Midões,Braga,PT,Portugal
67,45 South Trail,62-240,Trzemeszno,,PL,Poland
409,37 Jenna Park,,Smínthi,,GR,Greece
92,4051 Buena Vista Circle,P24,Carrigtwohill,,IE,Ireland
984,64979 Lakeland Park,11207,Bayaguana,,DO,Dominican Republic
195,67538 Forest Alley,,Shuanghe,,CN,China
942,56901 Farwell Lane,,Nacimiento,,CL,Chile
968,48822 Aberg Plaza,6714,Ede,Provincie Gelderland,NL,Netherlands
539,7 Carberry Street,,Xiuyu,,CN,China
255,99464 Bartillon Terrace,,Sarae,,ID,Indonesia
803,2 Elgar Point,,Klos,,AL,Albania
447,64174 Pankratz Hill,6511,Mossel Bay,,ZA,South Africa
554,5 Nelson Court,252837,Nariño,,CO,Colombia
411,0533 Bayside Road,,Korisós,,GR,Greece
851,17585 Almo Drive,11201,Jicomé,,DO,Dominican Republic
62,4041 Sheridan Road,,Huangdimiao,,CN,China
273,494 Beilfuss Drive,666137,Ust’-Omchug,,RU,Russia
785,1243 Emmet Drive,422920,Bilyarsk,,RU,Russia
557,359 Weeping Birch Alley,,Dongqiao,,CN,China
169,6 Artisan Court,03203,Elx/Elche,Comunidad Valenciana,ES,Spain
92,99 Mayfield Point,46-070,Komprachcice,,PL,Poland
928,41 Truax Plaza,165 60,Hässelby,Stockholm,SE,Sweden
345,7 Oakridge Center,,Penja,,CM,Cameroon
188,07 Novick Crossing,118 50,Stockholm,Stockholm,SE,Sweden
37,63010 Superior Pass,48161,Münster,Nordrhein-Westfalen,DE,Germany
75,41 Everett Park,55840-000,Lagoa do Itaenga,,BR,Brazil
132,1 Anderson Court,12620-000,Piquete,,BR,Brazil
233,78 Upham Way,,Walakeri,,ID,Indonesia
754,157 Johnson Way,,Bondo,,CD,Democratic Republic of the Congo
453,89677 Michigan Junction,,Sekampung,,ID,Indonesia
478,101 Evergreen Center,,Shamboyacu,,PE,Peru
787,50516 Fisk Trail,,Huangtan,,CN,China
481,253 Scott Way,,Pirg,,AL,Albania
120,5 Waubesa Court,,Yilan,,CN,China
88,76 Ridge Oak Crossing,87-880,Brześć Kujawski,,PL,Poland
83,52860 Oxford Park,J7X,Les Coteaux,Québec,CA,Canada
990,03 Pond Parkway,58750-000,Juru,,BR,Brazil
66,9 Jenifer Hill,,Yuxi,,CN,China
495,2708 Northwestern Parkway,346530,Shakhty,,RU,Russia
901,3 Bonner Pass,,Bulumulyo,,ID,Indonesia
414,43 Manufacturers Center,,Weishui,,CN,China
150,1850 Dwight Place,2005,Calangain,,PH,Philippines
31,58029 Eastlawn Junction,,Pandangan Kulon,,ID,Indonesia
750,47 Milwaukee Court,98670-000,Humaitá,,BR,Brazil
569,0 Kinsman Street,AB55,Tullich,Scotland,GB,United Kingdom
453,76 Grim Trail,,Montecristi,,EC,Ecuador
484,695 Kenwood Road,239 35,Skanör,Skåne,SE,Sweden
501,36 Debs Circle,612040,Svecha,,RU,Russia
905,183 Barnett Drive,,Buchou,,CN,China
54,6 Northridge Drive,,Feuknoni,,ID,Indonesia
822,0988 Pine View Street,,Liangbing,,CN,China
605,8928 Fairview Court,,Tarikolot,,ID,Indonesia
235,4 Mosinee Point,,Cuozhou,,CN,China
474,55 Chive Hill,,Al Jarādīyah,,SA,Saudi Arabia
384,49 Upham Drive,,Duanjia,,CN,China
723,728 Delladonna Point,2601,La Trinidad,,PH,Philippines
665,4959 Jana Avenue,,Huambo,,AO,Angola
580,81840 Paget Street,174214,Krasnofarfornyy,,RU,Russia
946,558 Aberg Crossing,,San Francisco,,PA,Panama
316,940 Holy Cross Parkway,,Krajan Dua Patempuran,,ID,Indonesia
651,97 Montana Center,85705,Tucson,Arizona,US,United States
47,9 Portage Park,,Ulbroka,,LV,Latvia
905,2 Johnson Avenue,L-9780,Wincrange,,LU,Luxembourg
767,45653 Anzinger Park,,Xinji,,CN,China
585,6231 Carey Center,,Tambulatana,,ID,Indonesia
730,4060 Arapahoe Center,63136,Independencia,Nayarit,MX,Mexico
231,8658 Schmedeman Trail,,Luyang,,CN,China
900,3 Troy Street,26120,Nakhon Nayok,,TH,Thailand
543,497 Clarendon Lane,301-0856,Ryūgasaki,,JP,Japan
838,97784 Roxbury Alley,,Gunungangka,,ID,Indonesia
619,1720 Sundown Parkway,,Şaqānis,,TN,Tunisia
600,6185 Derek Avenue,,Xinyan,,CN,China
844,9 Pierstorff Park,427820,Malaya Purga,,RU,Russia
492,33 Lukken Terrace,,Minh Long,,VN,Vietnam
778,6360 Main Avenue,6309,General Manuel J. Campos,,AR,Argentina
333,014 Longview Lane,,Rongxing,,CN,China
423,90697 Northwestern Hill,27197-000,Pinheiral,,BR,Brazil
642,0 Springview Street,,Slutsk,,BY,Belarus
661,60443 Meadow Valley Avenue,,Youguzhuang,,CN,China
108,309 Daystar Junction,7008,Camangcamang,,PH,Philippines
94,29 Sunbrook Park,,Xinjie,,CN,China
954,54 4th Circle,,Chauk,,MM,Myanmar
808,7 Pleasure Center,,Velyka Bilozerka,,UA,Ukraine
747,72640 Lerdahl Parkway,646626,Kalininskiy,,RU,Russia
554,7730 Ridgeview Court,183 77,Täby,Stockholm,SE,Sweden
478,90030 Karstens Park,,Mossendjo,,CG,Republic of the Congo
182,84833 Monument Park,,Hongmiao,,CN,China
369,0506 Green Ridge Alley,13110,Sena,,TH,Thailand
224,84357 Holy Cross Road,L6R,Gibsons,British Columbia,CA,Canada
519,2 West Parkway,,Toshloq,,UZ,Uzbekistan
965,3 Loomis Center,4201,Bauan,,PH,Philippines
54,723 Spaight Point,52120,Suan Luang,,TH,Thailand
440,93110 Westend Pass,,San Antonio de los Baños,,CU,Cuba
17,69 Northwestern Drive,99-200,Poddębice,,PL,Poland
417,432 Mcbride Junction,,Notre Dame,,MU,Mauritius
890,729 Arkansas Hill,,Gulariyā,,NP,Nepal
8,6 Glacier Hill Court,171205,Kalashnikovo,,RU,Russia
400,05250 Lukken Park,,Kudang,,ID,Indonesia
191,62787 Lawn Hill,,Xinghuo,,CN,China
654,8900 Schlimgen Parkway,13409,Berlin,Berlin,DE,Germany
542,2897 Wayridge Junction,,Charat,,PE,Peru
488,38 Spohn Pass,,Tengjia,,CN,China
74,46738 Dawn Parkway,86360-000,Bandeirantes,,BR,Brazil
799,4 Aberg Terrace,,Tengger,,ID,Indonesia
721,81 Armistice Crossing,,Chinchero,,PE,Peru
974,897 Clove Alley,,Duyun,,CN,China
992,09908 Monica Crossing,,Yaqian,,CN,China
959,69074 Fuller Road,,Dongluqiao,,CN,China
740,6005 Maple Wood Drive,,Shanhe,,CN,China
509,0 Hanover Place,439 82,Vroutek,,CZ,Czech Republic
613,279 Main Trail,,Mukayrās,,YE,Yemen
840,1175 Swallow Crossing,,Raejeru,,ID,Indonesia
946,1479 Charing Cross Point,4425,Tinawagan,,PH,Philippines
794,43803 Pearson Plaza,2590-431,Sapataria,Lisboa,PT,Portugal
451,0 Schurz Terrace,142279,Obolensk,,RU,Russia
246,70 Forest Court,572 32,Oskarshamn,Kalmar,SE,Sweden
408,1892 8th Pass,,Dongjiahe,,CN,China
3,16587 Lotheville Lane,592 11,Žďár nad Sázavou,,CZ,Czech Republic
430,53 Farragut Plaza,,Chowṉêy,,AF,Afghanistan
543,933 Warner Drive,08013 CEDEX,Charleville-Mézières,Champagne-Ardenne,FR,France
43,05 Goodland Lane,2087,Chelopech,,BG,Bulgaria
767,74 Quincy Street,64190,Kansas City,Missouri,US,United States
787,296 Gina Court,,Xinqiao,,CN,China
328,45080 Springview Street,,Dongsheng,,CN,China
957,618 Summerview Center,10155,New York City,New York,US,United States
164,520 Esch Avenue,,Qiaodi,,CN,China
591,226 Rieder Trail,,Xamtay,,LA,Laos
414,95 Bunting Plaza,57105,Sioux Falls,South Dakota,US,United States
537,36347 Cottonwood Plaza,51105,Sioux City,Iowa,US,United States
899,6337 Vera Center,352177,Maykopskoye,,RU,Russia
978,38775 Jenna Way,,Yuankeng,,CN,China
467,34 Thompson Place,H4R,Havre-Saint-Pierre,Québec,CA,Canada
885,84 Ilene Street,,Megati Kelod,,ID,Indonesia
838,80 Columbus Park,,Kalumpang,,ID,Indonesia
540,7305 Summerview Crossing,546079,Ábrego,,CO,Colombia
879,2190 Farwell Drive,4750-084,Alvito de São Pedro,Braga,PT,Portugal
572,9240 Delladonna Parkway,239 35,Skanör,Skåne,SE,Sweden
825,4950 Maryland Center,,Pagak,,ID,Indonesia
876,66 Namekagon Lane,,Guleluke,,CN,China
776,1 Farragut Way,,Ağdaş,,AZ,Azerbaijan
953,0542 Bunting Road,,Shuyuan,,CN,China
452,5802 Nelson Junction,,Yuanqian,,CN,China
42,0 Summerview Drive,,Sawahrandu,,ID,Indonesia
41,3283 Elka Hill,,Pejukutan,,ID,Indonesia
726,4642 Anzinger Park,423959,Ivot,,RU,Russia
525,5281 Cody Street,2807,Calaba,,PH,Philippines
507,15 Sunbrook Plaza,,Kesheng,,CN,China
588,685 Vidon Trail,9760-055,Biscoitos,Ilha Terceira,PT,Portugal
539,11 Commercial Place,132 81,Saltsjö-Boo,Stockholm,SE,Sweden
217,6558 Hooker Junction,6527,Malway,,PH,Philippines
388,40 Rutledge Avenue,,Narong,,CN,China
195,075 Hallows Drive,,Topory,,UA,Ukraine
923,16 Ramsey Way,09-470,Bodzanów,,PL,Poland
401,00124 Oak Pass,905-0002,Katsuyama,,JP,Japan
269,054 Loftsgordon Way,393 53,Kalmar,Kalmar,SE,Sweden
666,33011 North Trail,2156,Fray Luis A. Beltrán,,AR,Argentina
641,31 Helena Hill,,Da’an,,CN,China
874,5844 Sherman Plaza,331 54,Värnamo,Jönköping,SE,Sweden
788,49 Holy Cross Park,4419,Hinapalanan,,PH,Philippines
612,30 Corben Road,,Huanglin,,CN,China
986,2914 Lien Terrace,,Chengdu,,CN,China
485,932 Canary Avenue,,Atyrau,,KZ,Kazakhstan
694,5 Bunker Hill Pass,699-2211,Ōdachō-ōda,,JP,Japan
315,96724 Randy Parkway,,Hữu Lũng,,VN,Vietnam
664,76 Autumn Leaf Pass,,Jiaxing,,CN,China
882,925 Blue Bill Park Road,164610,Pinega,,RU,Russia
956,09 Oneill Drive,33673,Tampa,Florida,US,United States
693,6642 Center Park,,Babagan,,ID,Indonesia
627,068 Clemons Hill,997-0753,Tagawa,,JP,Japan
930,7235 Butterfield Park,,Houxixi,,CN,China
121,4 Gulseth Crossing,97620,Chirongui,,YT,Mayotte
965,6 6th Way,378 41,Jarošov nad Nežárkou,,CZ,Czech Republic
579,0792 Glacier Hill Crossing,,Geneng,,ID,Indonesia
964,1071 Nelson Alley,75312 CEDEX 09,Paris 09,Île-de-France,FR,France
746,03 Burrows Way,2424,Nalsian Norte,,PH,Philippines
504,85828 Sugar Center,,El Triunfo,,HN,Honduras
320,72948 Coolidge Point,623030,Shalya,,RU,Russia
329,18 Loomis Pass,40726,Shah Alam,Selangor,MY,Malaysia
705,14113 Dayton Junction,11300-000,São Vicente,,BR,Brazil
192,68264 Cascade Court,,Shuangfeng,,CN,China
853,151 Elmside Plaza,77014 CEDEX,Melun,Île-de-France,FR,France
441,521 Acker Road,169240,Koslan,,RU,Russia
662,024 Bartelt Hill,15600,Alīābad,,PK,Pakistan
859,966 Saint Paul Lane,H3C,Assiniboia,Saskatchewan,CA,Canada
572,0886 Northridge Point,28-340,Sędziszów,,PL,Poland
707,25633 Sage Crossing,102471,Uritsk,,RU,Russia
43,98701 Bultman Place,927-0038,Kashima,,JP,Japan
176,38992 Ludington Road,2560-028,A dos Cunhados,Lisboa,PT,Portugal
834,786 Chive Drive,,Lojejerkrajan,,ID,Indonesia
299,27 Sachtjen Trail,6519,Nijmegen,Provincie Gelderland,NL,Netherlands
644,0 Twin Pines Lane,,Mawa,,ID,Indonesia
707,7978 Lukken Trail,,Jingyang,,CN,China
50,5706 Bonner Crossing,,Ngawi,,ID,Indonesia
314,76 Carpenter Hill,,Haikou,,CN,China
743,7 Fisk Street,,Niamtougou,,TG,Togo
509,671 Charing Cross Circle,,Shangcheng Chengguanzhen,,CN,China
766,1545 4th Drive,,Xijiao,,CN,China
290,4197 Vidon Circle,696 72,Lipov,,CZ,Czech Republic
463,1839 Dorton Trail,,Thị Trấn Phước Bửu,,VN,Vietnam
149,70 Raven Parkway,,Aqsū,,KZ,Kazakhstan
7,4891 Marquette Road,8650-153,Figueira,Faro,PT,Portugal
864,88 Porter Hill,33-334,Kamionka Wielka,,PL,Poland
918,481 Dennis Junction,36955-000,Mutum,,BR,Brazil
617,87 Eastlawn Junction,188674,Borisova Griva,,RU,Russia
808,621 Kedzie Street,607320,Diveyevo,,RU,Russia
41,7 Jay Alley,717 00,Orlová,,CZ,Czech Republic
748,806 Magdeline Place,75037,Irving,Texas,US,United States
921,20329 Mifflin Alley,10807,Purral,,CR,Costa Rica
446,710 Caliangt Junction,981-4121,Ichinoseki,,JP,Japan
661,4623 West Park,,Huangzhou,,CN,China
566,7 Straubel Crossing,D17,Kinsealy-Drinan,,IE,Ireland
716,2101 Oak Terrace,,Xin Bulag,,CN,China
440,1685 Park Meadow Crossing,45228,Cincinnati,Ohio,US,United States
718,9 Corben Road,,Huwei,,CN,China
414,887 Marquette Parkway,,Pesucen,,ID,Indonesia
620,796 Bunker Hill Circle,3454,Buena Esperanza,,AR,Argentina
933,91 Delladonna Junction,56110,Khu Khan,,TH,Thailand
861,4 Eastlawn Circle,,Al ‘Āqir,,YE,Yemen
582,0 Armistice Alley,58135-000,Esperança,,BR,Brazil
756,01 East Circle,,Wangxian,,CN,China
457,369 Oakridge Street,42-293,Kalej,,PL,Poland
592,3429 Shelley Plaza,,Baltasar Brum,,UY,Uruguay
888,467 Onsgard Court,,Fangtian,,CN,China
969,89086 Hovde Terrace,58028 CEDEX,Nevers,Bourgogne,FR,France
692,24237 Westridge Park,93916,Kuching,Sarawak,MY,Malaysia
156,09 Meadow Valley Point,56500-000,Arcoverde,,BR,Brazil
554,0429 Laurel Place,,Huyuan,,CN,China
188,01 Morrow Junction,,Krajan Gebangan,,ID,Indonesia
737,4026 Barnett Avenue,,Huping,,CN,China
335,9445 Main Point,,Pallanchacra,,PE,Peru
878,00058 Blaine Road,,Yunxiang,,CN,China
983,6 Holy Cross Alley,,Xinji,,CN,China
951,0538 Division Drive,,La Labor,,HN,Honduras
986,650 North Road,,Al Lubban al Gharbī,,PS,Palestinian Territory
338,16 Barby Crossing,,Gyigang,,CN,China
393,3 Lake View Avenue,,Mardakyany,,AZ,Azerbaijan
20,178 Arizona Center,357560,Goryachevodskiy,,RU,Russia
390,92478 Brickson Park Hill,36-212,Jasionów,,PL,Poland
980,9998 David Road,,La Maná,,EC,Ecuador
483,576 Schmedeman Junction,,Bafoussam,,CM,Cameroon
30,77223 Maryland Junction,,Petani,,ID,Indonesia
878,9621 Towne Park,,Rodhítsa,,GR,Greece
966,8146 Toban Park,11830,Hendala,,LK,Sri Lanka
501,06910 Scott Terrace,171076,Bologoye,,RU,Russia
200,19 Johnson Park,V2A,Penticton,British Columbia,CA,Canada
464,68757 Bluejay Way,627439,Kazanskoye,,RU,Russia
213,14891 Gateway Lane,4940-206,Quintães,Viana do Castelo,PT,Portugal
38,35 Packers Trail,69406 CEDEX 03,Lyon,Rhône-Alpes,FR,France
550,34291 Bunker Hill Lane,300999,Tula,,RU,Russia
918,34059 Utah Park,,Baltasar Brum,,UY,Uruguay
363,85022 Everett Place,894 31,Själevad,Västernorrland,SE,Sweden
423,3 Walton Center,1495-048,Miraflores,Lisboa,PT,Portugal
816,8 Hovde Way,55570-000,Rio Formoso,,BR,Brazil
98,8 Lawn Court,50601,Faqīrwāli,,PK,Pakistan
334,70636 Cascade Trail,3309,Ramos West,,PH,Philippines
341,32 Badeau Terrace,,Guanchao,,CN,China
668,81028 Dorton Pass,,Weicheng,,CN,China
769,752 Fisk Pass,,Jangkat,,ID,Indonesia
569,4 Redwing Trail,,Pasongsongan,,ID,Indonesia
88,5 Manufacturers Place,,Jinjiang,,CN,China
922,5 Brickson Park Court,7030,Legrada,,PH,Philippines
296,10529 Huxley Alley,,Malie,,WS,Samoa
857,5 Clyde Gallagher Alley,,Bojonglarang,,ID,Indonesia
930,337 Morningstar Plaza,,Polo,,ID,Indonesia
53,20 Waywood Street,372 34,Ronneby,Blekinge,SE,Sweden
504,6 Blue Bill Park Circle,,Aībak,,AF,Afghanistan
172,566 Tony Street,,Nanpu,,CN,China
278,95374 Crescent Oaks Junction,,Polos,,ID,Indonesia
938,904 Gerald Center,3240,Villaguay,,AR,Argentina
651,78 Roth Hill,,Simeykyne,,UA,Ukraine
593,796 Mayfield Point,,Andongsari,,ID,Indonesia
810,2547 Eastlawn Plaza,20530,Washington,District of Columbia,US,United States
759,68 Thierer Circle,151247,El Espino,,CO,Colombia
719,57 Acker Circle,,Zhendong,,CN,China
489,461 John Wall Trail,2680-005,Camarate,Lisboa,PT,Portugal
299,3 Sugar Plaza,,Hlusk,,BY,Belarus
106,8 Maple Wood Circle,652120,Izhmorskiy,,RU,Russia
913,009 7th Street,2712,Santa Lucia,,PH,Philippines
19,43 Stephen Hill,873 80,Bollstabruk,Västernorrland,SE,Sweden
676,26 Fuller Drive,6545,Kawayan,,PH,Philippines
247,77702 Atwood Place,4500,Bascaron,,PH,Philippines
738,17 Luster Pass,,El Tránsito,,HN,Honduras
182,20006 Monument Trail,479-0871,Taketoyo,,JP,Japan
14,72060 Toban Place,24421,Miān Channūn,,PK,Pakistan
771,8 Golf Crossing,,Kadurahayu,,ID,Indonesia
160,9272 Northfield Park,,Jinzhou,,CN,China
616,03 Cambridge Park,P81,Farranacoush,,IE,Ireland
366,7 Gulseth Hill,49444,Muskegon,Michigan,US,United States
652,5325 Parkside Pass,4755-522,Várzea,Braga,PT,Portugal
381,3 Springs Street,48321,Sigetec,,HR,Croatia
232,73471 Rowland Park,,Konza,,KE,Kenya
548,00567 Prairieview Way,,Changping,,CN,China
931,22155 Sachs Circle,,G‘azalkent,,UZ,Uzbekistan
301,2299 Holmberg Center,6124,Maao,,PH,Philippines
991,5 Novick Drive,,Namp’o,,KP,North Korea
706,360 Macpherson Crossing,,Ebebiyin,,GQ,Equatorial Guinea
824,1 Pepper Wood Pass,,Shihuang,,CN,China
437,9704 Springs Point,,Xinfang,,CN,China
900,03 Bluestem Hill,,Haradok,,BY,Belarus
319,7 Sage Terrace,4206,Santa Teresita,,PH,Philippines
127,57 Sycamore Court,,Masallātah,,LY,Libya
743,87 Manitowish Way,,Ciwidara,,ID,Indonesia
325,5111 Blackbird Hill,,Jiangyin,,CN,China
255,84 Pearson Street,,Derviçian,,AL,Albania
259,23676 Elgar Place,10607,Azua,,DO,Dominican Republic
123,91780 Bunting Alley,4705-029,Aveleda,Braga,PT,Portugal
585,6608 Transport Court,,Xinglong,,CN,China
900,0826 Hudson Point,62-320,Miłosław,,PL,Poland
869,0 South Circle,12004,Comitancillo,,GT,Guatemala
913,9 Rigney Pass,L3R,Martensville,Saskatchewan,CA,Canada
149,162 Rowland Junction,,Hotonj,,BA,Bosnia and Herzegovina
29,67 Lukken Junction,,Cotaparaco,,PE,Peru
536,11 Porter Hill,,Huaribamba,,PE,Peru
385,5 Ridgeview Road,76204 CEDEX,Dieppe,Haute-Normandie,FR,France
681,166 Linden Park,,Bojongsarung,,ID,Indonesia
966,03 Sunbrook Drive,,Bantarmangu,,ID,Indonesia
704,34169 Green Ridge Avenue,,Ashchysay,,KZ,Kazakhstan
549,6 Westend Parkway,35450-000,Itabirito,,BR,Brazil
985,5 Green Ridge Crossing,12022,Pajapita,,GT,Guatemala
562,98213 Walton Court,99500-000,Carazinho,,BR,Brazil
427,07 Bobwhite Hill,250 66,Zdiby,,CZ,Czech Republic
743,709 Scoville Parkway,,Dajanrurung,,ID,Indonesia
209,87435 Novick Junction,54939 CEDEX 9,Nancy,Lorraine,FR,France
946,96839 Montana Junction,,Nūsay,,AF,Afghanistan
469,516 Old Gate Center,14120,Pho Thong,,TH,Thailand
387,4 Sycamore Street,,Bebekan,,ID,Indonesia
575,7362 Redwing Center,,Shunyi,,CN,China
320,034 Evergreen Avenue,93487 CEDEX,Saint-Ouen,Île-de-France,FR,France
648,5 Monterey Avenue,J7G,Magrath,Alberta,CA,Canada
838,22645 Westport Circle,,Masingbi,,SL,Sierra Leone
834,33071 Sunfield Point,1283,Macabugos,,PH,Philippines
311,3 Buell Circle,346940,Kuybyshevo,,RU,Russia
377,95765 Forest Dale Junction,,Maardu,,EE,Estonia
821,88 Merrick Park,9512,Dahay,,PH,Philippines
373,1 Starling Pass,1301,Belfast,,ZA,South Africa
507,9608 Derek Trail,,Danxi,,CN,China
468,849 Monument Drive,,Mabu,,CN,China
688,75 Mendota Parkway,,Banjar Dukuh,,ID,Indonesia
550,027 David Avenue,62652,Putrajaya,Putrajaya,MY,Malaysia
756,93976 Anderson Parkway,5401,Marintoc,,PH,Philippines
821,09852 Jay Drive,,Tanjungbalai,,ID,Indonesia
973,0 Anthes Trail,,Pingyao,,CN,China
687,8279 Esch Center,,Youdunjie,,CN,China
60,916 Reinke Terrace,,Jamalteca,,HN,Honduras
632,74462 Prairieview Plaza,2855-005,Corroios,Setúbal,PT,Portugal
420,78 Harper Park,5022,Guimbal,,PH,Philippines
735,3 Starling Drive,,Songshan,,CN,China
975,1350 Heath Court,,Mwembe,,TZ,Tanzania
299,8081 Mallard Junction,,Kostopil’,,UA,Ukraine
953,447 Spaight Crossing,,Jinshan,,CN,China
491,653 Utah Point,,Khorosheve,,UA,Ukraine
428,5525 Sachs Park,673416,Nerchinsk,,RU,Russia
266,155 Northfield Alley,V95,Aughrim,,IE,Ireland
209,614 Clove Alley,503 12,Všestary,,CZ,Czech Republic
667,19 Dovetail Park,,Jianshe,,CN,China
622,0988 Golden Leaf Trail,,Kijang,,KR,South Korea
882,4230 Elka Lane,,Krajan Keboromo,,ID,Indonesia
732,79 Aberg Terrace,,Hucun,,CN,China
479,7606 Kenwood Point,4730-010,Bemposta,Braga,PT,Portugal
705,602 Truax Plaza,,Ciloa,,ID,Indonesia
297,14025 Fairfield Parkway,,Yanggu,,CN,China
122,686 Claremont Road,,Huochezhan,,CN,China
433,04666 Carpenter Terrace,28930-000,Arraial do Cabo,,BR,Brazil
619,9290 Kenwood Plaza,,Wenxing,,CN,China
446,2337 Oxford Center,,Nyima,,CN,China
990,415 Buena Vista Trail,84430-000,Imbituva,,BR,Brazil
643,953 Sage Hill,,Sumurwaru,,ID,Indonesia
274,2 Commercial Crossing,,Kulutan,,ID,Indonesia
332,56689 Tomscot Junction,,Cimanggu,,ID,Indonesia
602,53296 Manitowish Circle,,Sirāhā,,NP,Nepal
127,27 Truax Street,,Cacocum,,CU,Cuba
825,1651 Prairie Rose Park,,Jiazi,,CN,China
49,808 Graceland Point,,New Kingston,,JM,Jamaica
457,8 Clemons Pass,,Syanno,,BY,Belarus
543,889 Graedel Parkway,,Luebo,,CD,Democratic Republic of the Congo
358,48149 Sachtjen Point,,Limbi,,KM,Comoros
339,103 Mandrake Court,3404,Pinoma,,PH,Philippines
290,411 Vernon Crossing,,Tuti,,PE,Peru
757,414 Rockefeller Hill,,Wangcun,,CN,China
437,944 Utah Court,,Yashikera,,NG,Nigeria
333,7344 Marquette Circle,,Obodivka,,UA,Ukraine
628,4765 Orin Center,59380-000,Currais Novos,,BR,Brazil
136,990 Blaine Center,,Jinshiqiao,,CN,China
722,635 Dahle Way,,Lamalewar,,ID,Indonesia
252,65 Petterle Plaza,,Haljala,,EE,Estonia
575,19687 American Ash Circle,,Leran,,ID,Indonesia
388,0023 Elgar Pass,,Daogao,,CN,China
850,78 Kinsman Point,678580,Batagay-Alyta,,RU,Russia
877,0 Straubel Court,75345 CEDEX 07,Paris 07,Île-de-France,FR,France
627,6 Lindbergh Pass,,Bojawa,,ID,Indonesia
379,69264 Killdeer Place,,Yulin,,CN,China
277,0804 Green Ridge Circle,,Segong,,ID,Indonesia
773,3828 Kim Trail,,Shatian,,CN,China
942,3 Elgar Junction,,Qaryūt,,PS,Palestinian Territory
351,97 Blackbird Avenue,1140,Sydney,New South Wales,AU,Australia
646,2170 Manitowish Road,,Suozhen,,CN,China
763,43 La Follette Parkway,400 04,Trmice,,CZ,Czech Republic
854,71594 7th Street,361513,Staropavlovskaya,,RU,Russia
544,8315 Schurz Circle,,Baipenzhu,,CN,China
346,28 Jay Junction,,Zarichchya,,UA,Ukraine
188,65 Novick Pass,618206,Chusovoy,,RU,Russia
229,2269 Heath Crossing,,Zudun,,CN,China
654,8 Riverside Street,33000,Rezovac,,HR,Croatia
15,94 Dixon Street,D17,Coolock,,IE,Ireland
457,34836 Division Trail,,Qianyou,,CN,China
187,0 Scofield Crossing,6328,Calape,,PH,Philippines
476,4 Mifflin Street,72215,Little Rock,Arkansas,US,United States
171,6 Bellgrove Pass,177027,Viterbo,,CO,Colombia
967,9 Arrowood Junction,,Chenqiao,,CN,China
613,5433 Acker Court,,Xinying,,TW,Taiwan
655,2 Monument Alley,47214,Murree,,PK,Pakistan
206,3 2nd Way,,Concordia,,HN,Honduras
977,50 Bunting Park,,Mehron,,TJ,Tajikistan
472,766 Wayridge Junction,,Dongzaogang,,CN,China
935,77 Westend Hill,,Kanshi,,CN,China
756,73438 Prentice Place,26241,Doāba,,PK,Pakistan
592,97618 Sachs Avenue,,Riangbaring,,ID,Indonesia
510,5387 Charing Cross Hill,,Netishyn,,UA,Ukraine
920,986 Old Shore Terrace,,Limonade,,HT,Haiti
352,5 Kensington Avenue,13660-000,Porto Ferreira,,BR,Brazil
484,3 Transport Pass,,Lanxi,,CN,China
682,88223 Sachtjen Terrace,1128,Consuelo,,PH,Philippines
280,0978 Calypso Park,,Dianwan,,CN,China
225,56107 Esch Trail,50730,Malakwal City,,PK,Pakistan
410,206 Loftsgordon Place,,Kalisangkrah Lor,,ID,Indonesia
442,7 Tennessee Parkway,,Al Matlīn,,TN,Tunisia
139,69 Grayhawk Trail,826 86,Söderhamn,Gävleborg,SE,Sweden
356,4 Bunting Park,74900-000,Aparecida de Goiânia,,BR,Brazil
857,65 Parkside Crossing,26-010,Bodzentyn,,PL,Poland
606,667 Chive Avenue,13937 CEDEX 20,Marseille,Provence-Alpes-Côte d'Azur,FR,France
605,5 Jackson Avenue,0748,North Shore,,NZ,New Zealand
231,60297 Beilfuss Parkway,95800-000,Venâncio Aires,,BR,Brazil
223,54721 Browning Street,,Meizhou,,CN,China
227,731 Randy Terrace,,Norakert,,AM,Armenia
566,25866 Myrtle Park,64222-000,Brodósqui,,BR,Brazil
388,196 Roth Point,,Yongyang,,CN,China
